{
  "type": "FeatureCollection",
  "features": [
    {
      "type": "Feature",
      "properties": {
        "norad_id": 66386,
        "name": "STARLINK-35651",
        "group": "last-30-days",
        "lat": 47.18297960104698,
        "lon": 69.74377803899318,
        "alt_km": 441.465978282421,
        "timestamp": "2025-12-04T09:47:36.301138+00:00",
        "meta_object_name": "STARLINK-35651",
        "meta_object_id": "2025-257G",
        "meta_epoch": "2025-12-03T22:00:03.000096",
        "meta_mean_motion": 15.40617073,
        "meta_eccentricity": 0.00016969,
        "meta_inclination": 53.1598,
        "meta_ra_of_asc_node": 306.0728,
        "meta_arg_of_pericenter": 76.1221,
        "meta_mean_anomaly": 191.9927,
        "meta_ephemeris_type": 0,
        "meta_classification_type": "U",
        "meta_norad_cat_id": 66386,
        "meta_element_set_no": 999,
        "meta_rev_at_epoch": 507,
        "meta_bstar": -0.03796438,
        "meta_mean_motion_dot": -0.0142559,
        "meta_mean_motion_ddot": 0,
        "tle_line1": "1 66386U 25257G   25337.91670139 -.01425590  00000+0 -37964-1 0  9993",
        "tle_line2": "2 66386  53.1598 306.0728 0001696  76.1221 191.9927 15.40617073  5073"
      },
      "geometry": {
        "type": "Point",
        "coordinates": [
          69.74377803899318,
          47.18297960104698
        ]
      }
    },
    {
      "type": "Feature",
      "properties": {
        "norad_id": 66387,
        "name": "STARLINK-35661",
        "group": "last-30-days",
        "lat": 46.32102216234207,
        "lon": 72.02081227091364,
        "alt_km": 441.9584933215265,
        "timestamp": "2025-12-04T09:47:36.301149+00:00",
        "meta_object_name": "STARLINK-35661",
        "meta_object_id": "2025-257H",
        "meta_epoch": "2025-12-03T22:00:03.000096",
        "meta_mean_motion": 15.40632226,
        "meta_eccentricity": 0.00013275,
        "meta_inclination": 53.1597,
        "meta_ra_of_asc_node": 306.069,
        "meta_arg_of_pericenter": 91.635,
        "meta_mean_anomaly": 178.3274,
        "meta_ephemeris_type": 0,
        "meta_classification_type": "U",
        "meta_norad_cat_id": 66387,
        "meta_element_set_no": 999,
        "meta_rev_at_epoch": 507,
        "meta_bstar": -0.040460725,
        "meta_mean_motion_dot": -0.01510912,
        "meta_mean_motion_ddot": 0,
        "tle_line1": "1 66387U 25257H   25337.91670139 -.01510912  00000+0 -40461-1 0  9993",
        "tle_line2": "2 66387  53.1597 306.0690 0001327  91.6350 178.3274 15.40632226  5078"
      },
      "geometry": {
        "type": "Point",
        "coordinates": [
          72.02081227091364,
          46.32102216234207
        ]
      }
    },
    {
      "type": "Feature",
      "properties": {
        "norad_id": 66388,
        "name": "STARLINK-35647",
        "group": "last-30-days",
        "lat": 32.27666509887885,
        "lon": 95.44339961567238,
        "alt_km": 436.8825395991671,
        "timestamp": "2025-12-04T09:47:36.301159+00:00",
        "meta_object_name": "STARLINK-35647",
        "meta_object_id": "2025-257J",
        "meta_epoch": "2025-12-03T22:00:03.000096",
        "meta_mean_motion": 15.43645387,
        "meta_eccentricity": 0.00015621,
        "meta_inclination": 53.1596,
        "meta_ra_of_asc_node": 306.0333,
        "meta_arg_of_pericenter": 103.4349,
        "meta_mean_anomaly": 184.4625,
        "meta_ephemeris_type": 0,
        "meta_classification_type": "U",
        "meta_norad_cat_id": 66388,
        "meta_element_set_no": 999,
        "meta_rev_at_epoch": 507,
        "meta_bstar": -0.049721741,
        "meta_mean_motion_dot": -0.0202527,
        "meta_mean_motion_ddot": 0,
        "tle_line1": "1 66388U 25257J   25337.91670139 -.02025270  00000+0 -49722-1 0  9992",
        "tle_line2": "2 66388  53.1596 306.0333 0001562 103.4349 184.4625 15.43645387  5076"
      },
      "geometry": {
        "type": "Point",
        "coordinates": [
          95.44339961567238,
          32.27666509887885
        ]
      }
    },
    {
      "type": "Feature",
      "properties": {
        "norad_id": 66389,
        "name": "STARLINK-35694",
        "group": "last-30-days",
        "lat": 12.244647848864735,
        "lon": 114.28943302141772,
        "alt_km": 417.1396349132192,
        "timestamp": "2025-12-04T09:47:36.301170+00:00",
        "meta_object_name": "STARLINK-35694",
        "meta_object_id": "2025-257K",
        "meta_epoch": "2025-12-03T09:51:45.959040",
        "meta_mean_motion": 15.49244836,
        "meta_eccentricity": 0.00018355,
        "meta_inclination": 53.159,
        "meta_ra_of_asc_node": 308.4226,
        "meta_arg_of_pericenter": 114.7525,
        "meta_mean_anomaly": 245.3675,
        "meta_ephemeris_type": 0,
        "meta_classification_type": "U",
        "meta_norad_cat_id": 66389,
        "meta_element_set_no": 999,
        "meta_rev_at_epoch": 493,
        "meta_bstar": 0.00034877553,
        "meta_mean_motion_dot": 0.00018953,
        "meta_mean_motion_ddot": 0,
        "tle_line1": "1 66389U 25257K   25337.41094860  .00018953  00000+0  34878-3 0  9993",
        "tle_line2": "2 66389  53.1590 308.4226 0001835 114.7525 245.3675 15.49244836  4938"
      },
      "geometry": {
        "type": "Point",
        "coordinates": [
          114.28943302141772,
          12.244647848864735
        ]
      }
    },
    {
      "type": "Feature",
      "properties": {
        "norad_id": 66390,
        "name": "STARLINK-35665",
        "group": "last-30-days",
        "lat": -15.462335526975707,
        "lon": 135.55165640657893,
        "alt_km": 421.1917638597961,
        "timestamp": "2025-12-04T09:47:36.301180+00:00",
        "meta_object_name": "STARLINK-35665",
        "meta_object_id": "2025-257L",
        "meta_epoch": "2025-12-03T22:05:59.946144",
        "meta_mean_motion": 15.49349961,
        "meta_eccentricity": 0.00013135,
        "meta_inclination": 53.1591,
        "meta_ra_of_asc_node": 305.9128,
        "meta_arg_of_pericenter": 91.1298,
        "meta_mean_anomaly": 268.9861,
        "meta_ephemeris_type": 0,
        "meta_classification_type": "U",
        "meta_norad_cat_id": 66390,
        "meta_element_set_no": 999,
        "meta_rev_at_epoch": 511,
        "meta_bstar": 0.0022494957,
        "meta_mean_motion_dot": 0.00126894,
        "meta_mean_motion_ddot": 0,
        "tle_line1": "1 66390U 25257L   25337.92083271  .00126894  00000+0  22495-2 0  9990",
        "tle_line2": "2 66390  53.1591 305.9128 0001313  91.1298 268.9861 15.49349961  5114"
      },
      "geometry": {
        "type": "Point",
        "coordinates": [
          135.55165640657893,
          -15.462335526975707
        ]
      }
    },
    {
      "type": "Feature",
      "properties": {
        "norad_id": 66391,
        "name": "STARLINK-35656",
        "group": "last-30-days",
        "lat": 11.77043157827015,
        "lon": 114.65139557737226,
        "alt_km": 446.2487741356572,
        "timestamp": "2025-12-04T09:47:36.301191+00:00",
        "meta_object_name": "STARLINK-35656",
        "meta_object_id": "2025-257M",
        "meta_epoch": "2025-12-03T22:00:03.000096",
        "meta_mean_motion": 15.39638258,
        "meta_eccentricity": 0.00015344,
        "meta_inclination": 53.1601,
        "meta_ra_of_asc_node": 305.9548,
        "meta_arg_of_pericenter": 92.8644,
        "meta_mean_anomaly": 227.3212,
        "meta_ephemeris_type": 0,
        "meta_classification_type": "U",
        "meta_norad_cat_id": 66391,
        "meta_element_set_no": 999,
        "meta_rev_at_epoch": 517,
        "meta_bstar": -0.001473746,
        "meta_mean_motion_dot": -0.0005893,
        "meta_mean_motion_ddot": 0,
        "tle_line1": "1 66391U 25257M   25337.91670139 -.00058930  00000+0 -14737-2 0  9992",
        "tle_line2": "2 66391  53.1601 305.9548 0001534  92.8644 227.3212 15.39638258  5175"
      },
      "geometry": {
        "type": "Point",
        "coordinates": [
          114.65139557737226,
          11.77043157827015
        ]
      }
    },
    {
      "type": "Feature",
      "properties": {
        "norad_id": 66392,
        "name": "STARLINK-35671",
        "group": "last-30-days",
        "lat": 30.521056947249658,
        "lon": 97.469922387664,
        "alt_km": 438.6814845919889,
        "timestamp": "2025-12-04T09:47:36.301201+00:00",
        "meta_object_name": "STARLINK-35671",
        "meta_object_id": "2025-257N",
        "meta_epoch": "2025-12-03T22:00:03.000096",
        "meta_mean_motion": 15.4313651,
        "meta_eccentricity": 0.00015376,
        "meta_inclination": 53.1596,
        "meta_ra_of_asc_node": 306.0255,
        "meta_arg_of_pericenter": 105.743,
        "meta_mean_anomaly": 185.5184,
        "meta_ephemeris_type": 0,
        "meta_classification_type": "U",
        "meta_norad_cat_id": 66392,
        "meta_element_set_no": 999,
        "meta_rev_at_epoch": 507,
        "meta_bstar": -0.050510661,
        "meta_mean_motion_dot": -0.0202238,
        "meta_mean_motion_ddot": 0,
        "tle_line1": "1 66392U 25257N   25337.91670139 -.02022380  00000+0 -50511-1 0  9994",
        "tle_line2": "2 66392  53.1596 306.0255 0001537 105.7430 185.5184 15.43136510  5077"
      },
      "geometry": {
        "type": "Point",
        "coordinates": [
          97.469922387664,
          30.521056947249658
        ]
      }
    }
  ]
}